STARLINK-31282          
1 59307U 24056M   26068.50137457  .00000695  00000+0  34778-4 0  9997
2 59307  43.0042 231.9332 0001307 267.9054  92.1648 15.27572077111125
2025-155V               
1 64895U 25155V   26068.85787115  .00013705  00000+0  51002-3 0  9990
2 64895  97.4485  37.2490 0008035 152.8264 207.3397 15.27583301 65579
